[{"OBJECT_NAME":"STARLINK-37290","OBJECT_ID":"2026-070E","EPOCH":"2026-04-16T22:00:01.999584","MEAN_MOTION":15.82753039,"ECCENTRICITY":9.208e-5,"INCLINATION":53.1586,"RA_OF_ASC_NODE":192.7771,"ARG_OF_PERICENTER":68.7612,"MEAN_ANOMALY":155.3612,"EPHEMERIS_TYPE":0,"CLASSIFICATION_TYPE":"U","NORAD_CAT_ID":68546,"ELEMENT_SET_NO":999,"REV_AT_EPOCH":352,"BSTAR":-0.006636136,"MEAN_MOTION_DOT":-0.01263983,"MEAN_MOTION_DDOT":0},{"OBJECT_NAME":"STARLINK-37245","OBJECT_ID":"2026-070F","EPOCH":"2026-04-16T22:00:01.999584","MEAN_MOTION":15.82876256,"ECCENTRICITY":0.00010274,"INCLINATION":53.1586,"RA_OF_ASC_NODE":192.7601,"ARG_OF_PERICENTER":76.5552,"MEAN_ANOMALY":155.8725,"EPHEMERIS_TYPE":0,"CLASSIFICATION_TYPE":"U","NORAD_CAT_ID":68547,"ELEMENT_SET_NO":999,"REV_AT_EPOCH":352,"BSTAR":-0.0068092462,"MEAN_MOTION_DOT":-0.01299745,"MEAN_MOTION_DDOT":0},{"OBJECT_NAME":"STARLINK-37145","OBJECT_ID":"2026-070G","EPOCH":"2026-04-16T22:00:01.999584","MEAN_MOTION":15.82843563,"ECCENTRICITY":9.068e-5,"INCLINATION":53.1586,"RA_OF_ASC_NODE":192.7691,"ARG_OF_PERICENTER":75.8109,"MEAN_ANOMALY":152.3762,"EPHEMERIS_TYPE":0,"CLASSIFICATION_TYPE":"U","NORAD_CAT_ID":68548,"ELEMENT_SET_NO":999,"REV_AT_EPOCH":352,"BSTAR":-0.0066621636,"MEAN_MOTION_DOT":-0.01273177,"MEAN_MOTION_DDOT":0},{"OBJECT_NAME":"STARLINK-36204","OBJECT_ID":"2026-070H","EPOCH":"2026-04-16T22:00:01.999584","MEAN_MOTION":15.82926084,"ECCENTRICITY":9.336e-5,"INCLINATION":53.1587,"RA_OF_ASC_NODE":192.7515,"ARG_OF_PERICENTER":72.7614,"MEAN_ANOMALY":163.8487,"EPHEMERIS_TYPE":0,"CLASSIFICATION_TYPE":"U","NORAD_CAT_ID":68549,"ELEMENT_SET_NO":999,"REV_AT_EPOCH":347,"BSTAR":-0.0069134802,"MEAN_MOTION_DOT":-0.01319885,"MEAN_MOTION_DDOT":0},{"OBJECT_NAME":"STARLINK-36304","OBJECT_ID":"2026-070J","EPOCH":"2026-04-16T22:00:01.999584","MEAN_MOTION":15.82996321,"ECCENTRICITY":8.675e-5,"INCLINATION":53.1588,"RA_OF_ASC_NODE":192.7337,"ARG_OF_PERICENTER":76.448,"MEAN_ANOMALY":168.5863,"EPHEMERIS_TYPE":0,"CLASSIFICATION_TYPE":"U","NORAD_CAT_ID":68550,"ELEMENT_SET_NO":999,"REV_AT_EPOCH":347,"BSTAR":-0.0070892282,"MEAN_MOTION_DOT":-0.01353107,"MEAN_MOTION_DDOT":0},{"OBJECT_NAME":"STARLINK-37288","OBJECT_ID":"2026-070K","EPOCH":"2026-04-16T22:00:01.999584","MEAN_MOTION":15.83066118,"ECCENTRICITY":7.447e-5,"INCLINATION":53.1588,"RA_OF_ASC_NODE":192.7251,"ARG_OF_PERICENTER":72.6049,"MEAN_ANOMALY":176.5167,"EPHEMERIS_TYPE":0,"CLASSIFICATION_TYPE":"U","NORAD_CAT_ID":68551,"ELEMENT_SET_NO":999,"REV_AT_EPOCH":352,"BSTAR":-0.0070687097,"MEAN_MOTION_DOT":-0.01353541,"MEAN_MOTION_DDOT":0},{"OBJECT_NAME":"STARLINK-37295","OBJECT_ID":"2026-070L","EPOCH":"2026-04-16T22:00:01.999584","MEAN_MOTION":15.82937499,"ECCENTRICITY":0.00010483,"INCLINATION":53.1585,"RA_OF_ASC_NODE":192.7423,"ARG_OF_PERICENTER":77.8217,"MEAN_ANOMALY":163.0694,"EPHEMERIS_TYPE":0,"CLASSIFICATION_TYPE":"U","NORAD_CAT_ID":68552,"ELEMENT_SET_NO":999,"REV_AT_EPOCH":352,"BSTAR":-0.0070353291,"MEAN_MOTION_DOT":-0.01340942,"MEAN_MOTION_DDOT":0},{"OBJECT_NAME":"STARLINK-37254","OBJECT_ID":"2026-070M","EPOCH":"2026-04-16T22:00:01.999584","MEAN_MOTION":15.83059762,"ECCENTRICITY":8.453e-5,"INCLINATION":53.1586,"RA_OF_ASC_NODE":192.7072,"ARG_OF_PERICENTER":80.7294,"MEAN_ANOMALY":176.991,"EPHEMERIS_TYPE":0,"CLASSIFICATION_TYPE":"U","NORAD_CAT_ID":68553,"ELEMENT_SET_NO":999,"REV_AT_EPOCH":352,"BSTAR":-0.0071641495,"MEAN_MOTION_DOT":-0.01369164,"MEAN_MOTION_DDOT":0},{"OBJECT_NAME":"STARLINK-37255","OBJECT_ID":"2026-070N","EPOCH":"2026-04-16T22:00:01.999584","MEAN_MOTION":15.83123937,"ECCENTRICITY":0.0001111,"INCLINATION":53.1585,"RA_OF_ASC_NODE":192.6989,"ARG_OF_PERICENTER":77.1702,"MEAN_ANOMALY":184.65,"EPHEMERIS_TYPE":0,"CLASSIFICATION_TYPE":"U","NORAD_CAT_ID":68554,"ELEMENT_SET_NO":999,"REV_AT_EPOCH":352,"BSTAR":-0.0071514098,"MEAN_MOTION_DOT":-0.0137088,"MEAN_MOTION_DDOT":0},{"OBJECT_NAME":"STARLINK-37146","OBJECT_ID":"2026-070P","EPOCH":"2026-04-16T22:00:01.999584","MEAN_MOTION":15.8305067,"ECCENTRICITY":0.00010902,"INCLINATION":53.1588,"RA_OF_ASC_NODE":192.7161,"ARG_OF_PERICENTER":75.3619,"MEAN_ANOMALY":178.0975,"EPHEMERIS_TYPE":0,"CLASSIFICATION_TYPE":"U","NORAD_CAT_ID":68555,"ELEMENT_SET_NO":999,"REV_AT_EPOCH":352,"BSTAR":-0.0071444987,"MEAN_MOTION_DOT":-0.01365539,"MEAN_MOTION_DDOT":0},{"OBJECT_NAME":"STARLINK-37144","OBJECT_ID":"2026-070Q","EPOCH":"2026-04-16T22:00:01.999584","MEAN_MOTION":15.83149304,"ECCENTRICITY":9.348e-5,"INCLINATION":53.1586,"RA_OF_ASC_NODE":192.6812,"ARG_OF_PERICENTER":76.2859,"MEAN_ANOMALY":194.0509,"EPHEMERIS_TYPE":0,"CLASSIFICATION_TYPE":"U","NORAD_CAT_ID":68556,"ELEMENT_SET_NO":999,"REV_AT_EPOCH":352,"BSTAR":-0.0072426475,"MEAN_MOTION_DOT":-0.01414814,"MEAN_MOTION_DDOT":0},{"OBJECT_NAME":"STARLINK-37210","OBJECT_ID":"2026-070R","EPOCH":"2026-04-16T22:00:01.999584","MEAN_MOTION":15.83111041,"ECCENTRICITY":0.00010944,"INCLINATION":53.1586,"RA_OF_ASC_NODE":192.6904,"ARG_OF_PERICENTER":79.8949,"MEAN_ANOMALY":186.2578,"EPHEMERIS_TYPE":0,"CLASSIFICATION_TYPE":"U","NORAD_CAT_ID":68557,"ELEMENT_SET_NO":999,"REV_AT_EPOCH":352,"BSTAR":-0.0072174186,"MEAN_MOTION_DOT":-0.01408237,"MEAN_MOTION_DDOT":0},{"OBJECT_NAME":"STARLINK-37227","OBJECT_ID":"2026-070S","EPOCH":"2026-04-16T22:00:01.999584","MEAN_MOTION":15.83176968,"ECCENTRICITY":0.00010439,"INCLINATION":53.1586,"RA_OF_ASC_NODE":192.6723,"ARG_OF_PERICENTER":74.8658,"MEAN_ANOMALY":199.665,"EPHEMERIS_TYPE":0,"CLASSIFICATION_TYPE":"U","NORAD_CAT_ID":68558,"ELEMENT_SET_NO":999,"REV_AT_EPOCH":352,"BSTAR":-0.007223209,"MEAN_MOTION_DOT":-0.01413162,"MEAN_MOTION_DDOT":0},{"OBJECT_NAME":"STARLINK-37294","OBJECT_ID":"2026-070T","EPOCH":"2026-04-16T22:00:01.999584","MEAN_MOTION":15.83181445,"ECCENTRICITY":7.159e-5,"INCLINATION":53.1587,"RA_OF_ASC_NODE":192.6636,"ARG_OF_PERICENTER":73.6395,"MEAN_ANOMALY":205.1679,"EPHEMERIS_TYPE":0,"CLASSIFICATION_TYPE":"U","NORAD_CAT_ID":68559,"ELEMENT_SET_NO":999,"REV_AT_EPOCH":352,"BSTAR":-0.0072529941,"MEAN_MOTION_DOT":-0.01418414,"MEAN_MOTION_DDOT":0},{"OBJECT_NAME":"STARLINK-37291","OBJECT_ID":"2026-070U","EPOCH":"2026-04-16T22:00:01.999584","MEAN_MOTION":15.83226574,"ECCENTRICITY":7.107e-5,"INCLINATION":53.1586,"RA_OF_ASC_NODE":192.655,"ARG_OF_PERICENTER":94.0987,"MEAN_ANOMALY":188.8677,"EPHEMERIS_TYPE":0,"CLASSIFICATION_TYPE":"U","NORAD_CAT_ID":68560,"ELEMENT_SET_NO":999,"REV_AT_EPOCH":352,"BSTAR":-0.0072664476,"MEAN_MOTION_DOT":-0.01423474,"MEAN_MOTION_DDOT":0},{"OBJECT_NAME":"STARLINK-37114","OBJECT_ID":"2026-070V","EPOCH":"2026-04-16T22:00:01.999584","MEAN_MOTION":15.83288414,"ECCENTRICITY":7.699e-5,"INCLINATION":53.1588,"RA_OF_ASC_NODE":192.6468,"ARG_OF_PERICENTER":77.0148,"MEAN_ANOMALY":210.054,"EPHEMERIS_TYPE":0,"CLASSIFICATION_TYPE":"U","NORAD_CAT_ID":68561,"ELEMENT_SET_NO":999,"REV_AT_EPOCH":352,"BSTAR":-0.0072547113,"MEAN_MOTION_DOT":-0.01425203,"MEAN_MOTION_DDOT":0}]
