STARLINK-37290
1 68546U 26070E   26106.91668981 -.01263983  00000+0 -66361-2 0  9994
2 68546  53.1586 192.7771 0000920  68.7612 155.3612 15.82753039  3520
STARLINK-37245
1 68547U 26070F   26106.91668981 -.01299745  00000+0 -68092-2 0  9993
2 68547  53.1586 192.7601 0001027  76.5552 155.8725 15.82876256  3529
STARLINK-37145
1 68548U 26070G   26106.91668981 -.01273177  00000+0 -66622-2 0  9992
2 68548  53.1586 192.7691 0000906  75.8109 152.3762 15.82843563  3522
STARLINK-36204
1 68549U 26070H   26106.91668981 -.01319885  00000+0 -69135-2 0  9992
2 68549  53.1587 192.7515 0000933  72.7614 163.8487 15.82926084  3471
STARLINK-36304
1 68550U 26070J   26106.91668981 -.01353107  00000+0 -70892-2 0  9991
2 68550  53.1588 192.7337 0000867  76.4480 168.5863 15.82996321  3475
STARLINK-37288
1 68551U 26070K   26106.91668981 -.01353541  00000+0 -70687-2 0  9996
2 68551  53.1588 192.7251 0000744  72.6049 176.5167 15.83066118  3529
STARLINK-37295
1 68552U 26070L   26106.91668981 -.01340942  00000+0 -70353-2 0  9998
2 68552  53.1585 192.7423 0001048  77.8217 163.0694 15.82937499  3524
STARLINK-37254
1 68553U 26070M   26106.91668981 -.01369164  00000+0 -71641-2 0  9997
2 68553  53.1586 192.7072 0000845  80.7294 176.9910 15.83059762  3521
STARLINK-37255
1 68554U 26070N   26106.91668981 -.01370880  00000+0 -71514-2 0  9994
2 68554  53.1585 192.6989 0001111  77.1702 184.6500 15.83123937  3525
STARLINK-37146
1 68555U 26070P   26106.91668981 -.01365539  00000+0 -71445-2 0  9993
2 68555  53.1588 192.7161 0001090  75.3619 178.0975 15.83050670  3521
STARLINK-37144
1 68556U 26070Q   26106.91668981 -.01414814  00000+0 -72426-2 0  9995
2 68556  53.1586 192.6812 0000934  76.2859 194.0509 15.83149304  3528
STARLINK-37210
1 68557U 26070R   26106.91668981 -.01408237  00000+0 -72174-2 0  9998
2 68557  53.1586 192.6904 0001094  79.8949 186.2578 15.83111041  3524
STARLINK-37227
1 68558U 26070S   26106.91668981 -.01413162  00000+0 -72232-2 0  9997
2 68558  53.1586 192.6723 0001043  74.8658 199.6650 15.83176968  3528
STARLINK-37294
1 68559U 26070T   26106.91668981 -.01418414  00000+0 -72530-2 0  9994
2 68559  53.1587 192.6636 0000715  73.6395 205.1679 15.83181445  3523
STARLINK-37291
1 68560U 26070U   26106.91668981 -.01423474  00000+0 -72664-2 0  9996
2 68560  53.1586 192.6550 0000710  94.0987 188.8677 15.83226574  3526
STARLINK-37114
1 68561U 26070V   26106.91668981 -.01425203  00000+0 -72547-2 0  9999
2 68561  53.1588 192.6468 0000769  77.0148 210.0540 15.83288414  3529
